#cV1997 12 10 12  0  0.00000000    5046 DORIS ITR05 FIT  LCA
##  935 302400.00000000    60.00000000 50792 0.5000000000000
+    1   L01  0  0  0  0  0  0  0  0  0  0  0  0  0  0  0  0
+          0  0  0  0  0  0  0  0  0  0  0  0  0  0  0  0  0
+          0  0  0  0  0  0  0  0  0  0  0  0  0  0  0  0  0
+          0  0  0  0  0  0  0  0  0  0  0  0  0  0  0  0  0
+          0  0  0  0  0  0  0  0  0  0  0  0  0  0  0  0  0
++         0  0  0  0  0  0  0  0  0  0  0  0  0  0  0  0  0
++         0  0  0  0  0  0  0  0  0  0  0  0  0  0  0  0  0
++         0  0  0  0  0  0  0  0  0  0  0  0  0  0  0  0  0
++         0  0  0  0  0  0  0  0  0  0  0  0  0  0  0  0  0
++         0  0  0  0  0  0  0  0  0  0  0  0  0  0  0  0  0
%c L  cc TAI ccc cccc cccc cccc cccc ccccc ccccc ccccc ccccc
%c cc cc ccc ccc cccc cccc cccc cccc ccccc ccccc ccccc ccccc
%f  0.0000000  0.000000000  0.00000000000  0.000000000000000
%f  0.0000000  0.000000000  0.00000000000  0.000000000000000
%i    0    0    0    0      0      0      0      0         0
%i    0    0    0    0      0      0      0      0         0
/* CNES/CLS - TOULOUSE, FRANCE ccccc ccccc ccccc ccccc ccccc
/* CCCCCCCCCCCCCC Contact : Laurent SOUDARIN CCCCCCCCCCCCCCC
/* CCCCCCCCCCCCCCCCCCCCCCCCCCCCCCCCCCCCCCCCCCCCCCCCCCCCCCCCC
/* CCCCCCCCCCCCCCCCCCCCCCCCCCCCCCCCCCCCCCCCCCCCCCCCCCCCCCCCC
*  1997 12 10 19 28  0.00000000
PL01   2853.291687   2077.903216  -6861.485561 999999.999999
VL01  -5977.743593   3220.815285  -1509.548343 999999.999999
*  1997 12 10 19 29  0.00000000
PL01   2491.239361   2269.417655  -6941.309820 999999.999999
VL01  -6087.639890   3161.515197  -1150.573604 999999.999999
*  1997 12 10 19 30  0.00000000
PL01   2123.140579   2457.107251  -6999.483153 999999.999999
VL01  -6179.254087   3093.326523   -788.037196 999999.999999
*  1997 12 10 19 31  0.00000000
PL01   1750.098565   2640.440019  -7035.825505 999999.999999
VL01  -6252.385431   3016.297773   -423.062115 999999.999999
*  1997 12 10 19 32  0.00000000
PL01   1373.226928   2818.887638  -7050.224433 999999.999999
VL01  -6306.888612   2930.502582    -56.778460 999999.999999
*  1997 12 10 19 33  0.00000000
PL01    993.646326   2991.926964  -7042.635426 999999.999999
VL01  -6342.673939   2836.039982    309.679883 999999.999999
*  1997 12 10 19 34  0.00000000
PL01    612.481132   3159.041563  -7013.082042 999999.999999
VL01  -6359.707322   2733.034604    675.178547 999999.999999
*  1997 12 10 19 35  0.00000000
PL01    230.856097   3319.723252  -6961.655830 999999.999999
VL01  -6358.010111   2621.636865   1038.585964 999999.999999
*  1997 12 10 19 36  0.00000000
PL01   -150.106964   3473.473649  -6888.516067 999999.999999
VL01  -6337.658846   2502.023098   1398.776650 999999.999999
*  1997 12 10 19 37  0.00000000
PL01   -529.292473   3619.805731  -6793.889296 999999.999999
VL01  -6298.784835   2374.395571   1754.634523 999999.999999
*  1997 12 10 19 38  0.00000000
PL01   -905.594362   3758.245388  -6678.068660 999999.999999
VL01  -6241.573551   2238.982427   2105.056169 999999.999999
*  1997 12 10 19 39  0.00000000
PL01  -1277.919297   3888.332972  -6541.413044 999999.999999
VL01  -6166.263909   2096.037603   2448.954029 999999.999999
*  1997 12 10 19 40  0.00000000
PL01  -1645.189860   4009.624841  -6384.346037 999999.999999
VL01  -6073.147465   1945.840684   2785.259578 999999.999999
*  1997 12 10 19 41  0.00000000
PL01  -2006.347688   4121.694896  -6207.354684 999999.999999
VL01  -5962.567500   1788.696689   3112.926521 999999.999999
*  1997 12 10 19 42  0.00000000
PL01  -2360.356535   4224.136089  -6010.988063 999999.999999
VL01  -5834.917955   1624.935744   3430.933973 999999.999999
*  1997 12 10 19 43  0.00000000
PL01  -2706.205286   4316.561926  -5795.855665 999999.999999
VL01  -5690.642236   1454.912655   3738.289607 999999.999999
*  1997 12 10 19 44  0.00000000
PL01  -3042.910879   4398.607928  -5562.625584 999999.999999
VL01  -5530.231873   1279.006364   4034.032750 999999.999999
*  1997 12 10 19 45  0.00000000
PL01  -3369.521151   4469.933059  -5312.022529 999999.999999
VL01  -5354.225052   1097.619285   4317.237434 999999.999999
*  1997 12 10 19 46  0.00000000
PL01  -3685.117591   4530.221115  -5044.825654 999999.999999
VL01  -5163.204973    911.176526   4587.015371 999999.999999
*  1997 12 10 19 47  0.00000000
PL01  -3988.817983   4579.182054  -4761.866203 999999.999999
VL01  -4957.798050    720.124989   4842.518830 999999.999999
*  1997 12 10 19 48  0.00000000
PL01  -4279.778946   4616.553280  -4464.025003 999999.999999
VL01  -4738.671945    524.932408   5082.943367 999999.999999
*  1997 12 10 19 49  0.00000000
PL01  -4557.198345   4642.100861  -4152.229781 999999.999999
VL01  -4506.533529    326.086350   5307.530410 999999.999999
*  1997 12 10 19 50  0.00000000
PL01  -4820.317580   4655.620688  -3827.452341 999999.999999
VL01  -4262.126812    124.093154   5515.569803 999999.999999
*  1997 12 10 19 51  0.00000000
PL01  -5068.423752   4656.939564  -3490.705578 999999.999999
VL01  -4006.230712    -80.523315   5706.402338 999999.999999
*  1997 12 10 19 52  0.00000000
PL01  -5300.851685   4645.916215  -3143.040352 999999.999999
VL01  -3739.656615   -287.223069   5879.422122 999999.999999
*  1997 12 10 19 53  0.00000000
PL01  -5516.985793   4622.442215  -2785.542225 999999.999999
VL01  -3463.245798   -495.451456   6034.078731 999999.999999
*  1997 12 10 19 54  0.00000000
PL01  -5716.261800   4586.442817  -2419.328066 999999.999999
VL01  -3177.866783   -704.640688   6169.879227 999999.999999
*  1997 12 10 19 55  0.00000000
PL01  -5898.168287   4537.877695  -2045.542552 999999.999999
VL01  -2884.412537   -914.211486   6286.390047 999999.999999
*  1997 12 10 19 56  0.00000000
PL01  -6062.248076   4476.741583  -1665.354546 999999.999999
VL01  -2583.797529  -1123.574845   6383.238660 999999.999999
*  1997 12 10 19 57  0.00000000
PL01  -6208.099424   4403.064797  -1279.953401 999999.999999
VL01  -2276.954697  -1332.133861   6460.114957 999999.999999
*  1997 12 10 19 58  0.00000000
PL01  -6335.377041   4316.913663   -890.545171 999999.999999
VL01  -1964.832363  -1539.285580   6516.772426 999999.999999
*  1997 12 10 19 59  0.00000000
PL01  -6443.792922   4218.390815   -498.348769 999999.999999
VL01  -1648.390928  -1744.422667   6553.029151 999999.999999
*  1997 12 10 20  0  0.00000000
PL01  -6533.116981   4107.635384   -104.592063 999999.999999
VL01  -1328.600458  -1946.936708   6568.768578 999999.999999
*  1997 12 10 20  1  0.00000000
PL01  -6603.177491   3984.823068    289.492056 999999.999999
VL01  -1006.435645  -2146.217688   6563.939969 999999.999999
*  1997 12 10 20  2  0.00000000
PL01  -6653.861325   3850.166067    682.669632 999999.999999
VL01   -682.874148  -2341.658606   6538.558484 999999.999999
*  1997 12 10 20  3  0.00000000
PL01  -6685.113989   3703.912908   1073.709591 999999.999999
VL01   -358.892514  -2532.656140   6492.705030 999999.999999
*  1997 12 10 20  4  0.00000000
PL01  -6696.939477   3546.348152   1461.387680 999999.999999
VL01    -35.463168  -2718.612891   6426.525946 999999.999999
*  1997 12 10 20  5  0.00000000
PL01  -6689.399923   3377.791973   1844.490374 999999.999999
VL01    286.448774  -2898.939391   6340.232442 999999.999999
*  1997 12 10 20  6  0.00000000
PL01  -6662.615074   3198.599629   2221.818748 999999.999999
VL01    605.888600  -3073.056096   6234.099780 999999.999999
*  1997 12 10 20  7  0.00000000
PL01  -6616.761570   3009.160801   2592.192289 999999.999999
VL01    921.915019  -3240.395338   6108.466284 999999.999999
*  1997 12 10 20  8  0.00000000
PL01  -6552.072050   2809.898826   2954.452649 999999.999999
VL01   1233.603167  -3400.403291   5963.732154 999999.999999
*  1997 12 10 20  9  0.00000000
PL01  -6468.834079   2601.269806   3307.467308 999999.999999
VL01   1540.047575  -3552.541897   5800.358016 999999.999999
*  1997 12 10 20 10  0.00000000
PL01  -6367.388897   2383.761608   3650.133159 999999.999999
VL01   1840.365028  -3696.290728   5618.863175 999999.999999
*  1997 12 10 20 11  0.00000000
PL01  -6248.129999   2157.892750   3981.379960 999999.999999
VL01   2133.697240  -3831.148742   5419.823666 999999.999999
*  1997 12 10 20 12  0.00000000
PL01  -6111.501569   1924.211190   4300.173684 999999.999999
VL01   2419.213349  -3956.635959   5203.870152 999999.999999
*  1997 12 10 20 13  0.00000000
PL01  -5957.996761   1683.293013   4605.519726 999999.999999
VL01   2696.112285  -4072.295091   4971.685699 999999.999999
*  1997 12 10 20 14  0.00000000
PL01  -5788.155842   1435.741020   4896.465979 999999.999999
VL01   2963.624988  -4177.693097   4724.003409 999999.999999
*  1997 12 10 20 15  0.00000000
PL01  -5602.564211   1182.183229   5172.105761 999999.999999
VL01   3221.016491  -4272.422689   4461.603924 999999.999999
*  1997 12 10 20 16  0.00000000
PL01  -5401.850291    923.271287   5431.580589 999999.999999
VL01   3467.587854  -4356.103765   4185.312802 999999.999999
*  1997 12 10 20 17  0.00000000
PL01  -5186.683320    659.678799   5674.082793 999999.999999
VL01   3702.677955  -4428.384751   3895.997784 999999.999999
*  1997 12 10 20 18  0.00000000
PL01  -4957.771023    392.099576   5898.857963 999999.999999
VL01   3925.665126  -4488.943860   3594.565976 999999.999999
*  1997 12 10 20 19  0.00000000
PL01  -4715.857205    121.245812   6105.207223 999999.999999
VL01   4135.968679  -4537.490104   3281.960943 999999.999999
*  1997 12 10 20 20  0.00000000
PL01  -4461.719250   -152.153809   6292.489331 999999.999999
VL01   4333.050249  -4573.765331   2959.159676 999999.999999
*  1997 12 10 20 21  0.00000000
PL01  -4196.165541   -427.356064   6460.122588 999999.999999
VL01   4516.415006  -4597.543328   2627.169492 999999.999999
*  1997 12 10 20 22  0.00000000
PL01  -3920.032823   -703.605210   6607.586567 999999.999999
VL01   4685.612596  -4608.632631   2287.024938 999999.999999
*  1997 12 10 20 23  0.00000000
PL01  -3634.183504   -980.135046   6734.423652 999999.999999
VL01   4840.238040  -4606.876465   1939.784673 999999.999999
EOF
